{"type":"FeatureCollection", "features": [
{"type":"Feature","geometry":{"type":"MultiPolygon","coordinates":[[[[141,-2.6],[144.58,-3.86],[149.78,-10.39],[147.91,-10.13],[144.74,-7.63],[142.63,-9.33],[141.03,-9.12],[141,-2.6]]],[[[176.89,-40.07],[173.82,-39.51],[174.7,-37.38],[178.52,-37.7],[176.89,-40.07]]],[[[169.67,-43.56],[172.1,-40.96],[174.25,-41.77],[169.33,-46.64],[167.05,-45.11],[169.67,-43.56]]],[[[126.15,-32.22],[123.66,-33.89],[119.89,-33.98],[118.02,-35.06],[115.03,-34.2],[115.8,-32.21],[114.17,-28.12],[113.39,-24.38],[114.65,-21.83],[116.71,-20.7],[120.86,-19.68],[122.31,-17.25],[125.69,-14.23],[129.41,-14.42],[130.62,-12.54],[133.55,-11.79],[136.95,-12.35],[135.43,-14.72],[139.26,-17.37],[140.88,-17.37],[141.7,-15.04],[145.37,-14.98],[146.39,-18.96],[148.85,-20.39],[149.68,-22.34],[152.86,-25.27],[153.57,-28.11],[152.89,-31.64],[150.08,-36.42],[146.32,-39.04],[140.64,-38.02],[138.12,-35.61],[134.27,-32.62],[131.33,-31.5],[126.15,-32.22]]]]},"properties":{"CONTINENT":"Oceania"}},
{"type":"Feature","geometry":{"type":"MultiPolygon","coordinates":[[[[39.2,-4.68],[39.19,-8.49],[40.32,-10.32],[40.78,-14.69],[39.45,-16.72],[37.41,-17.59],[34.79,-19.78],[35.46,-24.12],[32.57,-25.73],[32.83,-26.74],[32.46,-28.3],[28.22,-32.77],[25.78,-33.94],[22.57,-33.86],[19.62,-34.82],[18.24,-33.87],[18.22,-31.66],[16.34,-28.58],[15.21,-27.09],[14.26,-22.11],[11.73,-17.3],[12.74,-13.14],[13.63,-12.04],[13.24,-8.56],[12.32,-6.1],[12.18,-5.79],[11.91,-5.04],[11.09,-3.98],[8.8,-1.11],[9.49,1.01],[9.65,2.28],[8.5,4.77],[5.9,4.26],[4.33,6.27],[2.69,6.26],[1.87,6.14],[1.06,5.93],[-2.86,4.99],[-5.83,4.99],[-7.71,4.36],[-11.44,6.79],[-13.25,8.9],[-15.13,11.04],[-16.68,12.38],[-16.84,13.15],[-16.71,13.59],[-16.46,16.14],[-16.28,20.09],[-17.06,21],[-17.02,21.42],[-14.44,26.25],[-9.56,29.93],[-8.66,33.24],[-5.93,35.76],[-2.17,35.17],[1.47,36.61],[8.42,36.95],[10.94,35.7],[11.49,33.14],[15.25,32.27],[15.71,31.38],[19.09,30.27],[20.85,32.71],[25.16,31.57],[28.91,30.87],[30.98,31.56],[34.27,31.22],[34.82,29.76],[33.35,27.7],[36.87,22],[37.48,18.61],[38.41,18],[39.27,15.92],[43.08,12.7],[43.15,11.46],[44.12,10.45],[48.95,11.41],[51.05,10.64],[49.45,6.8],[46.56,2.86],[43.14,0.29],[41.59,-1.68],[39.2,-4.68]]],[[[49.54,-12.47],[50.48,-15.23],[49.5,-17.11],[47.1,-24.94],[44.04,-24.99],[43.25,-22.06],[44.37,-20.07],[43.96,-17.41],[46.31,-15.78],[49.54,-12.47]]]]},"properties":{"CONTINENT":"Africa"}},
{"type":"Feature","geometry":{"type":"MultiPolygon","coordinates":[[[[-122.84,49],[-127.44,50.83],[-130.54,54.8],[-134.08,58.12],[-137.8,58.5],[-139.87,59.54],[-148.02,59.98],[-154.23,58.15],[-157.72,57.57],[-166.12,61.5],[-164.56,63.15],[-168.11,65.67],[-161.91,70.33],[-156.58,71.36],[-152.27,70.6],[-140.99,69.71],[-136.5,68.9],[-127.45,70.38],[-113.9,68.4],[-109.95,67.98],[-98.44,67.78],[-95.21,71.92],[-88.02,68.62],[-81.28,69.16],[-81.39,67.11],[-86.07,66.06],[-88.48,64.1],[-93.16,62.02],[-94.63,60.11],[-90.9,57.28],[-85.01,55.3],[-82.27,55.15],[-81.4,52.16],[-76.54,56.53],[-78.52,58.8],[-78.11,62.32],[-73.84,62.44],[-69.59,61.06],[-69.29,58.96],[-66.2,58.77],[-64.58,60.34],[-59.57,55.2],[-57.33,54.63],[-55.68,52.15],[-60.03,50.24],[-65.06,49.23],[-64.47,46.24],[-61.04,45.27],[-65.36,43.55],[-67.14,45.14],[-70.12,43.68],[-70.64,41.48],[-73.98,40.63],[-75.72,37.94],[-75.73,35.55],[-78.55,33.86],[-81.49,30.73],[-80.06,26.88],[-81.17,25.2],[-83.71,29.94],[-89.18,30.32],[-94.69,29.48],[-97.37,27.38],[-97.53,25.84],[-97.87,22.44],[-95.9,18.83],[-94.43,18.14],[-90.77,19.28],[-90.28,21],[-87.05,21.54],[-88.3,18.5],[-88.93,15.89],[-88.23,15.73],[-84.37,15.84],[-83.15,15],[-83.66,10.94],[-82.55,9.57],[-81.44,8.79],[-79.57,9.61],[-77.35,8.67],[-77.88,7.22],[-79.12,9],[-80.48,8.09],[-82.97,8.23],[-85.8,10.13],[-85.71,11.09],[-87.32,12.98],[-87.79,13.38],[-90.1,13.74],[-92.23,14.54],[-94.69,16.2],[-96.56,15.65],[-100.83,17.17],[-104.99,19.32],[-106.03,22.77],[-109.29,26.44],[-114.47,27.14],[-117.13,32.54],[-120.37,34.45],[-123.73,38.95],[-124.53,42.77],[-123.9,45.52],[-124.69,48.18],[-122.84,49]]],[[[-55.6,51.32],[-53.48,49.25],[-53.07,46.66],[-59.27,47.6],[-56.74,51.29],[-55.6,51.32]]],[[[-78.77,72.35],[-66.97,69.19],[-62.16,66.16],[-65.32,64.38],[-66.17,61.93],[-71.02,62.91],[-77.9,65.31],[-72.65,67.28],[-77.29,69.77],[-84.94,69.97],[-90.21,72.24],[-82.32,73.75],[-78.77,72.35]]],[[[-106.52,73.08],[-104.46,70.99],[-105.96,69.18],[-113.31,68.54],[-119.4,71.56],[-115.19,73.31],[-106.52,73.08]]],[[[-91.59,81.89],[-79.31,83.13],[-61.89,82.36],[-71.18,79.8],[-80.56,76.18],[-89.49,76.47],[-85.09,79.35],[-91.59,81.89]]],[[[-46.76,82.63],[-27.1,83.52],[-12.21,81.29],[-19.7,78.75],[-19.37,74.3],[-23.44,72.08],[-22.35,70.13],[-27.75,68.47],[-39.81,65.46],[-43.38,60.1],[-48.26,60.86],[-51.63,63.63],[-53.97,67.19],[-54,71.55],[-58.59,75.52],[-68.5,76.06],[-73.16,78.43],[-62.65,81.77],[-46.76,82.63]]]]},"properties":{"CONTINENT":"North America"}},
{"type":"Feature","geometry":{"type":"MultiPolygon","coordinates":[[[[141,-2.6],[141.03,-9.12],[138.67,-7.32],[137.93,-5.39],[131.99,-2.82],[132.38,-0.37],[133.99,-0.78],[134.42,-2.77],[138.33,-1.7],[141,-2.6]]],[[[117.88,4.14],[117.52,-0.8],[116,-3.66],[110.22,-2.93],[109.09,-0.46],[109.66,2.01],[113,3.1],[114.2,4.53],[115.45,5.45],[116.73,6.92],[119.18,5.41],[117.88,4.14]]],[[[122.93,0.88],[120.18,0.24],[123.17,-4.68],[120.31,-2.93],[118.77,-2.8],[120.04,0.57],[122.93,0.88]]],[[[108.49,-6.42],[112.61,-6.95],[113.46,-8.35],[108.28,-7.77],[108.49,-6.42]]],[[[104.37,-1.08],[106.11,-3.06],[105.82,-5.85],[102.58,-4.22],[98.6,1.82],[95.38,4.97],[97.48,5.25],[100.64,2.1],[101.66,2.08],[104.37,-1.08]]],[[[39.96,43.43],[37.54,44.66],[38.22,47.1],[40.07,49.6],[35.36,50.58],[31.79,52.1],[30.87,55.55],[28.18,56.17],[27.29,57.47],[27.98,59.48],[28.07,60.5],[31.14,62.36],[29.54,64.95],[28.59,69.06],[31.1,69.56],[36.51,69.06],[41.13,66.79],[34.81,65.9],[34.94,64.41],[43.95,66.07],[53.72,68.86],[57.32,68.47],[63.5,69.55],[69.94,73.04],[79.65,72.32],[80.51,73.65],[98.92,76.45],[104.35,77.7],[111.08,76.71],[113.97,73.59],[126.98,73.57],[128.46,71.98],[139.87,71.49],[140.47,72.85],[157.01,71.03],[160.94,69.44],[175.72,69.88],[180,68.96],[180,64.98],[179.37,62.98],[170.7,60.34],[163.54,59.87],[162.12,54.86],[156.79,51.01],[155.43,55.38],[158.36,58.06],[160.12,60.54],[156.72,61.43],[151.27,58.78],[142.2,59.04],[135.13,54.73],[139.9,54.19],[141.35,53.09],[140.06,48.45],[134.87,43.4],[130.78,42.22],[127.53,39.76],[128.35,38.61],[129.46,36.78],[129.09,35.08],[126.49,34.39],[126.17,37.75],[124.27,39.93],[117.53,38.74],[119.7,37.16],[119.15,34.91],[121.91,31.69],[122.09,29.83],[118.66,24.55],[115.89,22.78],[111.84,21.55],[108.05,21.55],[105.66,19.06],[108.88,15.28],[109.2,11.67],[105.16,8.6],[104.33,10.49],[102.58,12.19],[100.98,13.41],[99.15,9.96],[100.46,7.43],[102.14,6.22],[103.38,4.86],[103.52,1.23],[101.39,2.76],[100.09,6.46],[98.5,8.38],[98.55,9.93],[98.76,11.44],[97.16,16.93],[94.19,16.04],[94.32,18.21],[92.37,20.67],[91.42,22.77],[89.03,22.06],[86.98,21.5],[86.5,20.15],[80.32,15.9],[79.86,10.36],[77.54,7.97],[76.59,8.9],[73.53,15.99],[72.63,21.36],[70.47,20.88],[68.18,23.69],[66.37,25.43],[61.5,25.08],[57.4,25.74],[51.52,27.87],[50.12,30.15],[48.57,29.93],[47.97,29.98],[48.42,28.55],[50.81,24.75],[51.39,24.63],[51.58,24.25],[54.01,24.12],[56.07,26.06],[56.26,25.71],[56.4,24.92],[59.81,22.31],[57.79,19.07],[55.27,17.23],[53.11,16.65],[52.17,15.6],[48.68,14],[43.48,12.64],[42.78,16.35],[40.94,19.49],[39.14,21.29],[38.49,23.69],[35.13,28.06],[34.96,29.36],[34.92,29.5],[34.82,29.76],[34.27,31.22],[35.13,33.09],[36,34.64],[36.15,35.82],[34.71,36.8],[32.51,36.11],[27.64,36.66],[26.17,39.46],[29.24,41.22],[31.15,41.09],[35.17,42.04],[38.35,40.95],[41.55,41.54],[39.96,43.43]],[[52.5,41.78],[50.89,44.03],[53.04,45.26],[53.04,46.85],[49.1,46.4],[46.68,44.61],[48.58,41.81],[49.62,40.57],[48.88,38.32],[52.26,36.7],[53.92,37.2],[52.5,41.78]]],[[[22.73,54.33],[19.66,54.43],[21.27,55.19],[22.73,54.33]]],[[[-174.93,67.21],[-171.86,66.91],[-173.89,64.28],[-178.36,65.39],[-180,64.98],[-180,68.96],[-174.93,67.21]]],[[[26.12,41.83],[28,42.01],[26.06,40.82],[26.12,41.83]]],[[[126.38,8.41],[126.54,7.19],[124.22,6.16],[123.49,8.69],[126.38,8.41]]],[[[141.88,39.18],[140.77,35.84],[138.98,34.67],[132.16,33.9],[131.33,31.45],[129.41,33.3],[132.62,35.43],[135.68,35.53],[139.43,38.22],[141.88,39.18]]]]},"properties":{"CONTINENT":"Asia"}},
{"type":"Feature","geometry":{"type":"MultiPolygon","coordinates":[[[[-68.63,-52.64],[-66.96,-54.9],[-71.01,-55.05],[-68.63,-52.64]]],[[[-58.43,-33.91],[-56.79,-36.9],[-59.23,-38.72],[-62.34,-38.83],[-62.15,-40.68],[-65.12,-41.06],[-64.38,-42.87],[-65.64,-47.24],[-69.14,-50.73],[-68.57,-52.3],[-72.56,-53.53],[-74.95,-52.26],[-75.64,-46.65],[-74.69,-45.76],[-73.17,-37.12],[-71.44,-32.42],[-71.49,-28.86],[-70.91,-27.64],[-70.09,-21.39],[-70.37,-18.35],[-76.01,-14.65],[-79.76,-7.19],[-81.25,-6.14],[-80.3,-3.4],[-80.93,-1.06],[-78.86,1.38],[-77.13,3.85],[-77.88,7.22],[-77.35,8.67],[-75.48,10.62],[-71.33,11.78],[-68.19,10.55],[-62.73,10.42],[-59.76,8.37],[-57.15,5.97],[-53.96,5.76],[-54.52,2.31],[-52.94,2.12],[-51.66,4.16],[-49.95,1.05],[-48.62,-0.24],[-41.47,-2.91],[-39.98,-2.87],[-37.22,-4.82],[-35.24,-5.46],[-35.13,-9],[-38.95,-13.79],[-38.88,-15.67],[-39.76,-19.6],[-41.99,-22.97],[-46.47,-24.09],[-48.5,-25.88],[-48.89,-28.67],[-53.37,-33.77],[-54.94,-34.95],[-58.43,-33.91]]]]},"properties":{"CONTINENT":"South America"}},
{"type":"Feature","geometry":{"type":"MultiPolygon","coordinates":[[[[27.98,59.48],[27.29,57.47],[28.18,56.17],[30.87,55.55],[31.79,52.1],[35.36,50.58],[40.07,49.6],[38.22,47.1],[35.01,45.74],[33.44,45.97],[30.75,46.58],[29.6,45.29],[28.56,43.71],[28,42.01],[26.12,41.83],[26.06,40.82],[22.85,39.66],[24.04,37.66],[21.67,36.84],[20.15,39.62],[19.37,41.88],[18.45,42.48],[16.02,43.51],[13.72,45.5],[13.94,45.59],[12.33,45.38],[12.59,44.09],[15.89,41.54],[12.11,41.7],[8.89,44.37],[7.44,43.69],[2.99,42.47],[0.81,41.01],[-0.68,37.64],[-5.38,35.95],[-7.45,37.1],[-9.53,38.74],[-9.03,41.88],[-7.98,43.75],[-1.9,43.42],[-1.19,46.01],[-2.96,47.57],[2.51,51.15],[3.32,51.35],[6.91,53.48],[8.53,54.96],[9.92,54.98],[14.12,53.76],[17.62,54.85],[19.66,54.43],[22.73,54.33],[21.27,55.19],[21.06,56.03],[24.31,57.79],[27.98,59.48]]],[[[31.1,69.56],[28.59,69.06],[29.54,64.95],[31.14,62.36],[28.07,60.5],[22.87,59.85],[21.06,62.61],[25.4,65.11],[23.9,66.01],[17.85,62.75],[18.79,60.08],[15.88,56.1],[12.94,55.36],[11.03,58.86],[5.67,58.59],[4.99,61.97],[10.53,64.49],[19.18,69.82],[28.17,71.19],[31.1,69.56]]],[[[-51.66,4.16],[-52.94,2.12],[-54.52,2.31],[-53.96,5.76],[-51.66,4.16]]],[[[-3.09,53.4],[-5.59,55.31],[-5.01,58.63],[-1.96,57.68],[-2.09,55.91],[0.47,52.93],[0.55,50.77],[-3.62,50.23],[-5.27,51.99],[-3.09,53.4]]],[[[-14.51,66.46],[-13.61,65.13],[-18.66,63.5],[-20.58,65.73],[-14.51,66.46]]]]},"properties":{"CONTINENT":"Europe"}},
{"type":"Feature","geometry":{"type":"Polygon","coordinates":[[[180,-84.71],[180,-90],[-180,-90],[-180,-84.71],[-148.53,-85.61],[-152.86,-82.04],[-147.22,-80.67],[-151.33,-77.4],[-144.32,-75.54],[-135.21,-74.3],[-116.22,-74.24],[-100.65,-75.3],[-96.34,-73.62],[-88.42,-73.01],[-76.22,-73.97],[-68.94,-73.01],[-68.49,-70.11],[-65.51,-67.58],[-61.51,-71.09],[-61.96,-74.44],[-77.93,-78.38],[-75.36,-80.26],[-63.26,-81.75],[-28.55,-80.34],[-35.78,-78.34],[-28.88,-76.67],[-15.7,-74.5],[-15.45,-73.15],[-7.42,-71.7],[9.53,-70.01],[19.26,-69.89],[27.09,-70.46],[32.75,-69.38],[40.02,-69.11],[52.61,-66.05],[58.74,-67.29],[68.89,-67.93],[67.81,-70.31],[77.64,-69.46],[82.78,-67.21],[87.48,-66.88],[99.72,-67.25],[102.83,-65.56],[106.18,-66.93],[113.6,-65.88],[120.87,-67.19],[135.87,-66.03],[137.46,-66.95],[145.49,-66.92],[146.65,-67.9],[154.28,-68.56],[171.21,-71.7],[166.09,-74.38],[159.79,-80.95],[180,-84.71]]]},"properties":{"CONTINENT":"Antarctica"}}
]}